#dP2022  8  5  6  0  0.00000000      96 __u+U ITR00 EXT  IAC
## 2221 453600.00000000   900.00000000 59796 0.2500000000000
+  116   C06C07C08C09C10C11C12C13C14C16C19C20C21C22C23C24C25
+        C26C27C28C29C30C32C33C34C35C36C37C38C39C40C41C42C43
+        C44C45C46E01E02E03E04E05E07E08E09E10E11E12E13E14E15
+        E18E19E21E24E25E26E27E30E31E33E34E36G01G02G03G04G05
+        G06G07G08G09G10G11G12G13G14G15G16G17G18G19G20G21G22
+        G23G24G25G26G27G28G29G30G31G32J02J03R01R02R03R04R05
+        R07R08R09R11R12R13R14R15R17R18R19R20R21R24  0  0  0
++        10 10  9  9  9  8  8  9  9 10  8  8  8  8 10  9  8
++         8 10  8  9  8  9  8  9  8  8  9 11  9 11  9  9  8
++         9  8  9  8  8  8  7  9  8  8  7  7  8  8  7  8  8
++         7  9  9  7  7  8  9  7  8  8  8  7  7  8  8  7  7
++         8  8  7  7  8  8  7  8  8  7  8  7  7  8  7  8  8
++         8  7  8  8  9  8  9  8  8  8  7  8  8  8  8  8  8
++         8  7  7  8  9  9  8  8  9  8  8  9  8  8  0  0  0
%c M  cc GPS ccc cccc cccc cccc cccc ccccc ccccc ccccc ccccc
%c cc cc ccc ccc cccc cccc cccc cccc ccccc ccccc ccccc ccccc
%f  0.0000000  0.000000000  0.00000000000  0.000000000000000
%f  0.0000000  0.000000000  0.00000000000  0.000000000000000
%i    0    0    0    0      0      0      0      0         0
%i    0    0    0    0      0      0      0      0         0
/* IAC                                ULTRA-RAPID PREDICTION
/* S/V CLOCKS ARE ALIGNED TO GNSS TIME                      
/* G:C1WC2W R:C1PC2P E:C1XC5X C:C2IC6I J:C1CC2S             
/* PCV:IGS14_2218 OL/AL:FES2004  NONE     YN ORB:CoN CLK:CoN
*  2022 08 06  3 45  0.00000000
PC06 -16691.052522  25993.993496 -28774.636812    549.579986
PC07  -9814.953068  40636.350891  -4662.662218   -527.458030
PC08   1347.590685  26667.098640  32670.120026    431.245837
PC09  -8536.562612  25485.017297 -32231.493154   -904.419189
PC10  -4369.338157  41628.626652   1657.425209    111.527133
PC11  19535.700914   6453.125686  18931.490522   -486.452483
PC12   1357.392784  15671.875348  23078.187856   -558.403224
PC13   6395.397363  29924.161371  29257.118202     44.743781
PC14  12415.533630  13584.284603 -20945.078030    576.499452
PC16 -19910.867794  25252.884182 -27202.357184    143.044607
PC19 -15521.152542  -2836.714535  23037.603552   -367.977820
PC20  -8190.613410 -20837.758510  16685.500955   -965.478955
PC21  -4635.888171  27504.164656    184.753011   -129.325996
PC22 -14224.271512  17583.791540  16323.770727    -51.568843
PC23  16515.710242  -6489.466754  21551.182193   -958.080765
PC24  16748.437366  20980.727163  -7662.264516   -968.163136
PC25  24095.215366   9035.592586  10817.385387   -697.029137
PC26   1820.446579  19552.779400 -19847.103175    699.175126
PC27   8337.560337 -17688.927224 -19928.185168   -399.297377
PC28  23611.976000 -13367.151275  -6545.682210     98.454275
PC29 -25346.920651   1630.388501 -11565.680448    591.539292
PC30 -11731.319938 -11974.733586 -22321.914386    501.832942
PC32   4453.827676 -27554.553362   -231.182216   -389.151133
PC33  15545.019959   2818.363293 -23002.509234   -341.678840
PC34  12780.926517  11401.804898  22013.950037   -342.529926
PC35 -23791.925463  13602.104836   5327.617894    399.378905
PC36 -23884.942082 -10059.555587 -10311.523921   -969.687870
PC37    -87.046915 -19045.135358  20412.246270   -927.584582
PC38  -7212.086737  23703.386873  34148.366432     15.194630
PC39 -24303.039016  25699.136979 -23062.718498     -0.201839
PC40 -15639.876817  38190.895834  -8061.981949     -1.820971
PC41  14323.383046 -17210.341510 -16610.271831   -142.169351
PC42   7579.902566  21644.041408 -15845.848197    -65.322076
PC43  25107.899655   -955.637061  12112.823040      7.042193
PC44  -7923.441859  18094.158252  19707.669147      8.474220
PC45 -16172.601710   6699.319586 -21718.496919    827.757272
PC46 -17869.842871 -20498.068810   6191.050837   -471.297853
PE01  -8378.034889  18917.691446 -21160.965603   -529.273295
PE02   8271.934356 -19056.079280  21086.353770    316.576294
PE03  18149.040003 -23367.134266   1118.365167   -586.547616
PE04  -3206.241556  23523.927693 -17670.312981  -1087.318993
PE05  22726.921832  -9448.540341 -16444.084618   -156.160121
PE07 -14021.604434  -9752.200496  24180.430187   -694.048679
PE08   3087.723692 -23421.072939  17844.380854   -576.336462
PE09  13929.659621   9626.702329 -24276.460759   -613.082284
PE10  16228.530154  15259.202309  19483.243307   -505.523825
PE11  24779.138094  11478.280032  11394.516534   2741.849608
PE12   5539.678514  16589.477608  23868.363884   -100.319720
PE13 -24319.122039 -11755.243719 -12110.102679    430.127525
PE14  17398.804490   4294.216111  17749.354271  -1757.778810
PE15  -5389.898668 -16507.788589 -23973.042949    728.674920
PE18 -13674.085103 -14598.894022 -24037.104752  -1128.350241
PE19 -19511.416826  22220.072713   1331.592161  -4888.331906
PE21 -17418.233496      4.112927 -23926.516743   -750.170286
PE24  16738.729489  21119.385531  12261.681893   -765.187128
PE25  17503.827952    315.605472  23880.455924   -583.586363
PE26 -28599.440119    426.065009   7598.306355  -1462.041515
PE27 -17138.893237 -20206.920338 -13179.752538   -361.752398
PE30  -6035.823056 -28336.158849   6040.890024   -731.562286
PE31   6798.114324  28334.937307  -5191.588210   -501.177832
PE33 -16612.608618  11496.439694  21629.994546   -454.073402
PE34  16418.588770 -11623.406491 -21732.518949   -489.520329
PE36  28816.591066    138.421961  -6769.760194   -412.675579
PG01 -19406.807922 -13941.155656 -12264.616710    307.379997
PG02   2940.427585  15837.536334  21745.713332   -649.826549
PG03 -12342.079322 -21553.175763   9442.602029   -325.320575
PG04  -9589.756499 -11813.901402  21773.395996   -136.757206
PG05   5674.640332  25653.468236   3170.661587    -91.836403
PG06 -16920.987810   8225.131561  18839.866481    414.290016
PG07 -26101.079082  -5752.189327  -1924.261878    316.090499
PG08  -2424.176160 -17409.145049 -19842.258678    -79.290228
PG09 -18209.507339   -756.940951  19263.008817   -311.331577
PG10  13172.888695  -7521.549309 -21624.390801   -517.989530
PG11  -4365.936706  14519.668081  21802.892503    -10.631495
PG12   9714.825419  23543.286400   7461.014043   -257.854156
PG13  -7981.493070  19742.281900 -15917.589007    362.501353
PG14 -14442.235629   5701.196650 -21536.854939   -110.247694
PG15   4968.456767  17519.022655 -19664.757836    -39.562656
PG16   1410.919850 -24905.611172   8147.636021   -519.173552
PG17 -22039.697933  12357.110953  -7837.536252    645.277918
PG18  25907.084718   5339.559302  -3093.560199     90.776327
PG19 -20360.719297  16830.253940    551.470450    193.426309
PG20  -1990.035582  22018.303634  14888.249847    497.145329
PG21 -12357.375645 -14956.488728 -17826.245663    160.706615
PG22  18229.957399 -18876.518001   3841.989320    304.928976
PG23  16072.537742   4087.751099 -20784.798851    -35.884204
PG24  16592.389430  14599.071714 -15332.727218    176.744279
PG25  15819.943173  13086.319568  16708.956955    357.621755
PG26   6459.654437 -19474.570306  16609.872686    222.216363
PG27   9595.443577 -21419.610860 -12257.941021    220.304231
PG28 -10321.636819  15518.695854 -18506.336508    339.498702
PG29  17805.437093   2032.593703  19580.658656   -540.283292
PG30 -23627.435712   2468.377114 -12043.010016   -535.418252
PG31  15231.363679  -9844.589197  19421.737608   -188.584379
PG32  20841.737156 -15094.625002  -6004.478862   -196.010019
PJ02 -20453.509352  23684.685141 -23662.354223     -2.708977
PJ03 -29405.239371  26883.610620  18725.676176     -0.467778
PR01   7901.104370   9862.450503 -22156.674885     12.661439
PR02  13362.866336 -10250.731035 -19091.606401    526.102608
PR03  10516.099157 -22750.447842  -4541.051958     61.373419
PR04   2083.706820 -22269.963822  12278.701639    152.977786
PR05  -7561.643810  -9631.970159  22381.739587     97.451315
PR07 -10326.304934  23030.091265   3903.850097     38.946493
PR08  -1930.057478  22277.954279 -12244.719222    -66.564977
PR09 -15281.960972  -2127.625098 -20314.246202     69.693575
PR11  10271.608933  20212.301827 -11656.931235     31.227137
PR12  18328.296699  16351.116442   6941.685990     19.778040
PR13  15709.057959   3571.544322  19768.224601    -25.406022
PR14   3036.814497 -12758.495933  21900.758235     24.620607
PR15 -10616.370579 -20523.799938  10838.758960     94.335903
PR17  15802.939553 -10586.622628 -17019.030511    549.913787
PR18  -1579.238981 -10319.529787 -23264.814316     36.142340
PR19 -16986.454893  -5782.093358 -18130.412377   -198.983255
PR20 -25271.838927   3578.798436    329.894948    -76.001430
PR21 -14427.749113  10678.765988  18101.419299   -323.286955
PR24  25087.373948  -4570.587069   -998.596753    107.388878
EOF
